[{"OBJECT_NAME":"STARLINK-36343","OBJECT_ID":"2026-032V","EPOCH":"2026-03-07T04:05:20.773248","MEAN_MOTION":15.79316517,"ECCENTRICITY":0.0001461,"INCLINATION":97.283,"RA_OF_ASC_NODE":252.6344,"ARG_OF_PERICENTER":108.6251,"MEAN_ANOMALY":251.5175,"EPHEMERIS_TYPE":0,"CLASSIFICATION_TYPE":"U","NORAD_CAT_ID":67816,"ELEMENT_SET_NO":999,"REV_AT_EPOCH":439,"BSTAR":-0.0051619,"MEAN_MOTION_DOT":-0.00839392,"MEAN_MOTION_DDOT":0},{"OBJECT_NAME":"STARLINK-36756","OBJECT_ID":"2026-032W","EPOCH":"2026-03-07T02:48:09.626976","MEAN_MOTION":15.75224025,"ECCENTRICITY":0.0001305,"INCLINATION":97.2846,"RA_OF_ASC_NODE":252.5547,"ARG_OF_PERICENTER":70.1723,"MEAN_ANOMALY":289.9683,"EPHEMERIS_TYPE":0,"CLASSIFICATION_TYPE":"U","NORAD_CAT_ID":67817,"ELEMENT_SET_NO":999,"REV_AT_EPOCH":437,"BSTAR":0.00061205,"MEAN_MOTION_DOT":0.00092289,"MEAN_MOTION_DDOT":0},{"OBJECT_NAME":"STARLINK-36346","OBJECT_ID":"2026-032X","EPOCH":"2026-03-07T04:00:03.000096","MEAN_MOTION":15.77429862,"ECCENTRICITY":0.0001857,"INCLINATION":97.2843,"RA_OF_ASC_NODE":252.6437,"ARG_OF_PERICENTER":93.0068,"MEAN_ANOMALY":273.9136,"EPHEMERIS_TYPE":0,"CLASSIFICATION_TYPE":"U","NORAD_CAT_ID":67818,"ELEMENT_SET_NO":999,"REV_AT_EPOCH":437,"BSTAR":-0.013578,"MEAN_MOTION_DOT":-0.019425,"MEAN_MOTION_DDOT":0},{"OBJECT_NAME":"STARLINK-36788","OBJECT_ID":"2026-032Y","EPOCH":"2026-03-07T03:03:54.645984","MEAN_MOTION":15.75241219,"ECCENTRICITY":0.000156,"INCLINATION":97.285,"RA_OF_ASC_NODE":252.5397,"ARG_OF_PERICENTER":57.1797,"MEAN_ANOMALY":302.9618,"EPHEMERIS_TYPE":0,"CLASSIFICATION_TYPE":"U","NORAD_CAT_ID":67819,"ELEMENT_SET_NO":999,"REV_AT_EPOCH":438,"BSTAR":0.00068619,"MEAN_MOTION_DOT":0.00103701,"MEAN_MOTION_DDOT":0},{"OBJECT_NAME":"STARLINK-36353","OBJECT_ID":"2026-032Z","EPOCH":"2026-03-07T02:58:19.371648","MEAN_MOTION":15.7525501,"ECCENTRICITY":0.0001509,"INCLINATION":97.2846,"RA_OF_ASC_NODE":252.5447,"ARG_OF_PERICENTER":66.8643,"MEAN_ANOMALY":293.2781,"EPHEMERIS_TYPE":0,"CLASSIFICATION_TYPE":"U","NORAD_CAT_ID":67820,"ELEMENT_SET_NO":999,"REV_AT_EPOCH":438,"BSTAR":0.0010975,"MEAN_MOTION_DOT":0.00167284,"MEAN_MOTION_DDOT":0},{"OBJECT_NAME":"STARLINK-36644","OBJECT_ID":"2026-033A","EPOCH":"2026-03-07T01:01:30.704736","MEAN_MOTION":15.82094673,"ECCENTRICITY":0.000218,"INCLINATION":42.9979,"RA_OF_ASC_NODE":287.7477,"ARG_OF_PERICENTER":262.2035,"MEAN_ANOMALY":97.8589,"EPHEMERIS_TYPE":0,"CLASSIFICATION_TYPE":"U","NORAD_CAT_ID":67821,"ELEMENT_SET_NO":999,"REV_AT_EPOCH":420,"BSTAR":0.00096064,"MEAN_MOTION_DOT":0.00207432,"MEAN_MOTION_DDOT":0},{"OBJECT_NAME":"STARLINK-36643","OBJECT_ID":"2026-033B","EPOCH":"2026-03-07T01:00:25.674912","MEAN_MOTION":15.82121365,"ECCENTRICITY":0.0002501,"INCLINATION":42.9975,"RA_OF_ASC_NODE":287.7414,"ARG_OF_PERICENTER":280.0976,"MEAN_ANOMALY":79.9614,"EPHEMERIS_TYPE":0,"CLASSIFICATION_TYPE":"U","NORAD_CAT_ID":67822,"ELEMENT_SET_NO":999,"REV_AT_EPOCH":420,"BSTAR":0.0011755,"MEAN_MOTION_DOT":0.00255706,"MEAN_MOTION_DDOT":0},{"OBJECT_NAME":"STARLINK-36646","OBJECT_ID":"2026-033C","EPOCH":"2026-03-07T00:59:21.156576","MEAN_MOTION":15.82122603,"ECCENTRICITY":0.0002378,"INCLINATION":42.9976,"RA_OF_ASC_NODE":287.7357,"ARG_OF_PERICENTER":279.5637,"MEAN_ANOMALY":80.4966,"EPHEMERIS_TYPE":0,"CLASSIFICATION_TYPE":"U","NORAD_CAT_ID":67823,"ELEMENT_SET_NO":999,"REV_AT_EPOCH":420,"BSTAR":0.0012913,"MEAN_MOTION_DOT":0.00281812,"MEAN_MOTION_DDOT":0},{"OBJECT_NAME":"STARLINK-36647","OBJECT_ID":"2026-033D","EPOCH":"2026-03-07T00:58:16.527648","MEAN_MOTION":15.82095197,"ECCENTRICITY":0.0002334,"INCLINATION":42.9977,"RA_OF_ASC_NODE":287.7296,"ARG_OF_PERICENTER":266.7123,"MEAN_ANOMALY":93.3482,"EPHEMERIS_TYPE":0,"CLASSIFICATION_TYPE":"U","NORAD_CAT_ID":67824,"ELEMENT_SET_NO":999,"REV_AT_EPOCH":420,"BSTAR":0.0010159,"MEAN_MOTION_DOT":0.00219712,"MEAN_MOTION_DDOT":0},{"OBJECT_NAME":"STARLINK-36648","OBJECT_ID":"2026-033E","EPOCH":"2026-03-07T00:57:11.669760","MEAN_MOTION":15.8208777,"ECCENTRICITY":0.0002543,"INCLINATION":42.9978,"RA_OF_ASC_NODE":287.7232,"ARG_OF_PERICENTER":279.0683,"MEAN_ANOMALY":80.9901,"EPHEMERIS_TYPE":0,"CLASSIFICATION_TYPE":"U","NORAD_CAT_ID":67825,"ELEMENT_SET_NO":999,"REV_AT_EPOCH":420,"BSTAR":0.00085386,"MEAN_MOTION_DOT":0.00183755,"MEAN_MOTION_DDOT":0},{"OBJECT_NAME":"STARLINK-35865","OBJECT_ID":"2026-033F","EPOCH":"2026-03-07T00:56:06.458496","MEAN_MOTION":15.82159565,"ECCENTRICITY":0.0002904,"INCLINATION":42.9974,"RA_OF_ASC_NODE":287.7169,"ARG_OF_PERICENTER":267.159,"MEAN_ANOMALY":92.8949,"EPHEMERIS_TYPE":0,"CLASSIFICATION_TYPE":"U","NORAD_CAT_ID":67826,"ELEMENT_SET_NO":999,"REV_AT_EPOCH":420,"BSTAR":0.0014601,"MEAN_MOTION_DOT":0.00320731,"MEAN_MOTION_DDOT":0},{"OBJECT_NAME":"STARLINK-36289","OBJECT_ID":"2026-033G","EPOCH":"2026-03-07T00:55:02.291808","MEAN_MOTION":15.82125539,"ECCENTRICITY":0.0002174,"INCLINATION":42.9977,"RA_OF_ASC_NODE":287.7109,"ARG_OF_PERICENTER":277.3201,"MEAN_ANOMALY":82.7423,"EPHEMERIS_TYPE":0,"CLASSIFICATION_TYPE":"U","NORAD_CAT_ID":67827,"ELEMENT_SET_NO":999,"REV_AT_EPOCH":420,"BSTAR":0.0013336,"MEAN_MOTION_DOT":0.00291421,"MEAN_MOTION_DDOT":0},{"OBJECT_NAME":"STARLINK-36670","OBJECT_ID":"2026-033H","EPOCH":"2026-03-07T00:53:57.509952","MEAN_MOTION":15.8207096,"ECCENTRICITY":0.0002291,"INCLINATION":42.998,"RA_OF_ASC_NODE":287.7044,"ARG_OF_PERICENTER":262.9537,"MEAN_ANOMALY":97.1074,"EPHEMERIS_TYPE":0,"CLASSIFICATION_TYPE":"U","NORAD_CAT_ID":67828,"ELEMENT_SET_NO":999,"REV_AT_EPOCH":420,"BSTAR":0.00064054,"MEAN_MOTION_DOT":0.00136852,"MEAN_MOTION_DDOT":0},{"OBJECT_NAME":"STARLINK-36144","OBJECT_ID":"2026-033J","EPOCH":"2026-03-07T00:52:52.694400","MEAN_MOTION":15.82137913,"ECCENTRICITY":0.0002342,"INCLINATION":42.9972,"RA_OF_ASC_NODE":287.6985,"ARG_OF_PERICENTER":274.3991,"MEAN_ANOMALY":85.6613,"EPHEMERIS_TYPE":0,"CLASSIFICATION_TYPE":"U","NORAD_CAT_ID":67829,"ELEMENT_SET_NO":999,"REV_AT_EPOCH":420,"BSTAR":0.001448,"MEAN_MOTION_DOT":0.00317626,"MEAN_MOTION_DDOT":0},{"OBJECT_NAME":"STARLINK-36611","OBJECT_ID":"2026-033K","EPOCH":"2026-03-07T00:51:48.087936","MEAN_MOTION":15.82112247,"ECCENTRICITY":0.0002647,"INCLINATION":42.9975,"RA_OF_ASC_NODE":287.6927,"ARG_OF_PERICENTER":273.6891,"MEAN_ANOMALY":86.3678,"EPHEMERIS_TYPE":0,"CLASSIFICATION_TYPE":"U","NORAD_CAT_ID":67830,"ELEMENT_SET_NO":999,"REV_AT_EPOCH":420,"BSTAR":0.0012074,"MEAN_MOTION_DOT":0.00262755,"MEAN_MOTION_DDOT":0},{"OBJECT_NAME":"STARLINK-36661","OBJECT_ID":"2026-033L","EPOCH":"2026-03-07T00:50:43.284480","MEAN_MOTION":15.82106528,"ECCENTRICITY":0.0002095,"INCLINATION":42.9979,"RA_OF_ASC_NODE":287.686,"ARG_OF_PERICENTER":273.1144,"MEAN_ANOMALY":86.9488,"EPHEMERIS_TYPE":0,"CLASSIFICATION_TYPE":"U","NORAD_CAT_ID":67831,"ELEMENT_SET_NO":999,"REV_AT_EPOCH":420,"BSTAR":0.0010785,"MEAN_MOTION_DOT":0.00233795,"MEAN_MOTION_DDOT":0},{"OBJECT_NAME":"STARLINK-36662","OBJECT_ID":"2026-033M","EPOCH":"2026-03-07T00:57:55.471968","MEAN_MOTION":15.8450313,"ECCENTRICITY":0.0002084,"INCLINATION":42.996,"RA_OF_ASC_NODE":286.8181,"ARG_OF_PERICENTER":277.279,"MEAN_ANOMALY":82.7845,"EPHEMERIS_TYPE":0,"CLASSIFICATION_TYPE":"U","NORAD_CAT_ID":67832,"ELEMENT_SET_NO":999,"REV_AT_EPOCH":421,"BSTAR":0.0011413,"MEAN_MOTION_DOT":0.00278631,"MEAN_MOTION_DDOT":0}]
